STARLINK-30455          
1 57942U 23148H   26068.20602072 -.00000766  00000+0 -13747-4 0  9992
2 57942  53.1624  26.7281 0001175  82.8128 277.3006 15.30188282138341
AL MUNTHER              
1 63240U 25052AG  26068.64540749  .00017933  00000+0  65015-3 0  9992
2 63240  97.4001 323.9152 0008027 130.7043 229.4895 15.28381521 54798
